NORAD_CAT_ID,OBJECT_NAME,OBJECT_TYPE,EPOCH,MEAN_MOTION,ECCENTRICITY,INCLINATION,RA_OF_ASC_NODE,ARG_OF_PERICENTER,MEAN_ANOMALY,BSTAR,MEAN_MOTION_DOT,MEAN_MOTION_DDOT,TLE_LINE0,TLE_LINE1,TLE_LINE2,SEMIMAJOR_AXIS,PERIOD,APOGEE,PERIGEE,DECAYED
55304.0,STARLINK-5318,PAYLOAD,2024-02-27 12:26:53,14.98320775,0.0003128,69.9988,93.0219,274.2275,85.8526,3.5217e-05,3.27e-06,0.0,0 STARLINK-5318,1 55304U 23010AM  24058.51868038  .00000327  00000-0  35217-4 0  9995,2 55304  69.9988  93.0219 0003128 274.2275  85.8526 14.98320775 62250,6950.221,96.108,574.26,569.912,0.0
55304.0,STARLINK-5318,PAYLOAD,2024-02-28 04:28:14,14.98331294,0.0003106,69.9989,91.3386,276.8833,83.1973,4.8332e-06,-3.5e-07,0.0,0 STARLINK-5318,1 55304U 23010AM  24059.18627632 -.00000035  00000-0  48332-5 0  9992,2 55304  69.9989  91.3386 0003106 276.8833  83.1973 14.98331294 62043,6950.189,96.107,574.213,569.895,0.0
55304.0,STARLINK-5318,PAYLOAD,2024-02-28 12:28:54,14.98338013,0.000255,69.9989,90.4978,266.408,93.6788,-8.5943e-05,-1.118e-05,0.0,0 STARLINK-5318,1 55304U 23010AM  24059.52007381 -.00001118  00000-0 -85943-4 0  9995,2 55304  69.9989  90.4978 0002550 266.4080  93.6788 14.98338013 62407,6950.168,96.106,573.805,570.261,0.0
55304.0,STARLINK-5318,PAYLOAD,2024-02-29 04:30:15,14.98325771,0.0003153,69.9987,88.8139,274.5539,85.526,4.1032e-05,3.97e-06,0.0,0 STARLINK-5318,1 55304U 23010AM  24060.18767871  .00000397  00000-0  41032-4 0  9993,2 55304  69.9987  88.8139 0003153 274.5539  85.5260 14.98325771 62192,6950.206,96.107,574.262,569.88,0.0
55304.0,STARLINK-5318,PAYLOAD,2024-02-29 09:18:39,14.98326427,0.0003121,69.9988,88.3093,273.1542,86.926,4.6285e-05,4.59e-06,0.0,0 STARLINK-5318,1 55304U 23010AM  24060.38795847  .00000459  00000-0  46285-4 0  9993,2 55304  69.9988  88.3093 0003121 273.1542  86.9260 14.98326427 62533,6950.204,96.107,574.238,569.9,0.0
55304.0,STARLINK-5318,PAYLOAD,2024-02-29 18:55:28,14.98327794,0.0003113,69.9987,87.2993,272.9047,87.1755,2.5197e-05,2.08e-06,0.0,0 STARLINK-5318,1 55304U 23010AM  24060.78851868  .00000208  00000-0  25197-4 0  9994,2 55304  69.9987  87.2993 0003113 272.9047  87.1755 14.98327794 62593,6950.2,96.107,574.228,569.901,0.0
55304.0,STARLINK-5318,PAYLOAD,2024-03-01 10:56:47,14.98336632,0.0003007,69.999,85.616,271.0347,89.0467,6.148e-05,6.41e-06,0.0,0 STARLINK-5318,1 55304U 23010AM  24061.45611086  .00000641  00000-0  61480-4 0  9991,2 55304  69.9990  85.6160 0003007 271.0347  89.0467 14.98336632 62693,6950.172,96.107,574.127,569.947,0.0
55304.0,STARLINK-5318,PAYLOAD,2024-03-01 18:57:28,14.9832818,0.0002879,69.9992,84.7745,271.2809,88.802,1.0851e-05,3.6e-07,0.0,0 STARLINK-5318,1 55304U 23010AM  24061.78991706  .00000036  00000-0  10851-4 0  9991,2 55304  69.9992  84.7745 0002879 271.2809  88.8020 14.98328180 62438,6950.199,96.107,574.064,570.063,0.0
55304.0,STARLINK-5318,PAYLOAD,2024-03-02 10:58:49,14.98325548,0.0002956,69.9991,83.0912,270.613,89.469,-2.1354e-05,-3.48e-06,0.0,0 STARLINK-5318,1 55304U 23010AM  24062.45751995 -.00000348  00000-0 -21354-4 0  9998,2 55304  69.9991  83.0912 0002956 270.6130  89.4690 14.98325548 62841,6950.207,96.107,574.126,570.017,0.0
55304.0,STARLINK-5318,PAYLOAD,2024-03-03 04:36:18,14.98329189,0.0003061,69.9989,81.239,270.5828,89.498,-2.5674e-05,-3.99e-06,0.0,0 STARLINK-5318,1 55304U 23010AM  24063.19187819 -.00000399  00000-0 -25674-4 0  9993,2 55304  69.9989  81.2390 0003061 270.5828  89.4980 14.98329189 62644,6950.195,96.107,574.188,569.933,0.0
55304.0,STARLINK-5318,PAYLOAD,2024-03-03 11:00:50,14.98332297,0.0003054,69.9988,80.5653,269.526,90.5549,-5.4236e-05,-7.4e-06,0.0,0 STARLINK-5318,1 55304U 23010AM  24063.45891685 -.00000740  00000-0 -54236-4 0  9991,2 55304  69.9988  80.5653 0003054 269.5260  90.5549 14.98332297 62993,6950.186,96.107,574.173,569.928,0.0
55304.0,STARLINK-5318,PAYLOAD,2024-03-04 04:38:18,14.98327644,0.0003066,69.9988,78.7136,268.5835,91.4973,0.00014632,1.653e-05,0.0,0 STARLINK-5318,1 55304U 23010AM  24064.19327384  .00001653  00000-0  14632-3 0  9990,2 55304  69.9988  78.7136 0003066 268.5835  91.4973 14.98327644 62797,6950.2,96.107,574.196,569.934,0.0
55304.0,STARLINK-5318,PAYLOAD,2024-03-04 11:02:50,14.98334164,0.0002794,69.9989,78.04,261.6502,98.434,0.00010027,1.104e-05,0.0,0 STARLINK-5318,1 55304U 23010AM  24064.46031016  .00001104  00000-0  10027-3 0  9999,2 55304  69.9989  78.0400 0002794 261.6502  98.4340 14.98334164 63147,6950.18,96.107,573.987,570.103,0.0
55304.0,STARLINK-5318,PAYLOAD,2024-03-05 11:04:52,14.9834658,0.0002188,69.9993,75.5149,255.2772,104.8144,-0.00040371,-4.908e-05,0.0,0 STARLINK-5318,1 55304U 23010AM  24065.46171609 -.00004908  00000-0 -40371-3 0  9995,2 55304  69.9993  75.5149 0002188 255.2772 104.8144 14.98346580 63294,6950.142,96.106,573.527,570.486,0.0
55304.0,STARLINK-5318,PAYLOAD,2024-03-06 11:06:52,14.98335842,0.0002855,69.9994,72.9904,270.6377,89.4455,-6.4757e-06,-1.7e-06,0.0,0 STARLINK-5318,1 55304U 23010AM  24066.46311228 -.00000170  00000-0 -64757-5 0  9992,2 55304  69.9994  72.9904 0002855 270.6377  89.4455 14.98335842 63133,6950.175,96.107,574.024,570.056,0.0
55304.0,STARLINK-5318,PAYLOAD,2024-03-07 03:08:13,14.98327014,0.0002959,69.9991,71.3069,271.8122,88.2698,4.7868e-05,4.78e-06,0.0,0 STARLINK-5318,1 55304U 23010AM  24067.13071554  .00000478  00000-0  47868-4 0  9994,2 55304  69.9991  71.3069 0002959 271.8122  88.2698 14.98327014 63230,6950.202,96.107,574.124,570.011,0.0
55304.0,STARLINK-5318,PAYLOAD,2024-03-07 09:32:46,14.98326012,0.0002971,69.9992,70.6335,271.1114,88.9705,3.1101e-05,2.78e-06,0.0,0 STARLINK-5318,1 55304U 23010AM  24067.39775699  .00000278  00000-0  31101-4 0  9994,2 55304  69.9992  70.6335 0002971 271.1114  88.9705 14.98326012 63588,6950.205,96.107,574.135,570.005,0.0
55304.0,STARLINK-5318,PAYLOAD,2024-03-08 03:10:14,14.98329784,0.0002961,69.9992,68.7817,270.3673,89.7146,-4.6552e-05,-6.48e-06,0.0,0 STARLINK-5318,1 55304U 23010AM  24068.13211710 -.00000648  00000-0 -46552-4 0  9995,2 55304  69.9992  68.7817 0002961 270.3673  89.7146 14.98329784 63386,6950.194,96.107,574.117,570.001,0.0
55304.0,STARLINK-5318,PAYLOAD,2024-03-08 09:34:47,14.98331698,0.0002822,69.9992,68.1081,266.0755,94.0081,-3.5462e-05,-5.16e-06,0.0,0 STARLINK-5318,1 55304U 23010AM  24068.39915529 -.00000516  00000-0 -35462-4 0  9994,2 55304  69.9992  68.1081 0002822 266.0755  94.0081 14.98331698 63735,6950.188,96.107,574.014,570.091,0.0
55304.0,STARLINK-5318,PAYLOAD,2024-03-08 17:35:27,14.98329092,0.0002951,69.9995,67.2659,268.0814,92.0007,-1.8379e-05,-3.12e-06,0.0,0 STARLINK-5318,1 55304U 23010AM  24068.73295630 -.00000312  00000-0 -18379-4 0  9998,2 55304  69.9995  67.2659 0002951 268.0814  92.0007 14.98329092 63786,6950.196,96.107,574.112,570.01,0.0
55304.0,STARLINK-5318,PAYLOAD,2024-03-09 06:24:31,14.98328624,0.000295,69.9994,65.9198,269.7245,90.3576,1.9613e-05,1.41e-06,0.0,0 STARLINK-5318,1 55304U 23010AM  24069.26703596  .00000141  00000-0  19613-4 0  9992,2 55304  69.9994  65.9198 0002950 269.7245  90.3576 14.98328624 63550,6950.197,96.107,574.112,570.012,0.0
55304.0,STARLINK-5318,PAYLOAD,2024-03-09 09:36:48,14.98328157,0.0002962,69.9994,65.5832,269.8599,90.2221,1.3995e-05,7.4e-07,0.0,0 STARLINK-5318,1 55304U 23010AM  24069.40055654  .00000074  00000-0  13995-4 0  9995,2 55304  69.9994  65.5832 0002962 269.8599  90.2221 14.98328157 63880,6950.199,96.107,574.122,570.005,0.0
55304.0,STARLINK-5318,PAYLOAD,2024-03-10 09:38:48,14.98329229,0.0002871,69.9994,63.0584,266.9463,93.1367,0.00012436,1.391e-05,0.0,0 STARLINK-5318,1 55304U 23010AM  24070.40195245  .00001391  00000-0  12436-3 0  9999,2 55304  69.9994  63.0584 0002871 266.9463  93.1367 14.98329229 63721,6950.195,96.107,574.056,570.065,0.0
55304.0,STARLINK-5318,PAYLOAD,2024-03-10 22:27:53,14.98330044,0.0002863,69.9997,61.7125,270.8149,89.2682,1.2447e-05,5.6e-07,0.0,0 STARLINK-5318,1 55304U 23010AM  24070.93603441  .00000056  00000-0  12447-4 0  9999,2 55304  69.9997  61.7125 0002863 270.8149  89.2682 14.98330044 64113,6950.193,96.107,574.048,570.068,0.0
55304.0,STARLINK-5318,PAYLOAD,2024-03-11 09:40:49,14.98331525,0.0002885,69.9997,60.5344,268.1409,91.942,2.9568e-05,2.6e-06,0.0,0 STARLINK-5318,1 55304U 23010AM  24071.40335243  .00000260  00000-0  29568-4 0  9993,2 55304  69.9997  60.5344 0002885 268.1409  91.9420 14.98331525 63873,6950.188,96.107,574.058,570.048,0.0
55304.0,STARLINK-5318,PAYLOAD,2024-03-12 09:42:50,14.98328851,0.0002813,69.9999,58.0089,266.5952,93.4885,-7.521e-06,-1.83e-06,0.0,0 STARLINK-5318,1 55304U 23010AM  24072.40475467 -.00000183  00000-0 -75210-5 0  9999,2 55304  69.9999  58.0089 0002813 266.5952  93.4885 14.98328851 64027,6950.196,96.107,574.017,570.106,0.0
55304.0,STARLINK-5318,PAYLOAD,2024-03-12 16:07:22,14.98353496,0.0002984,70.0,57.335,275.1083,84.9735,-0.00039163,-4.766e-05,0.0,0 STARLINK-5318,1 55304U 23010AM  24072.67178708 -.00004766  00000-0 -39163-3 0  9992,2 55304  70.0000  57.3350 0002984 275.1083  84.9735 14.98353496 64062,6950.12,96.105,574.059,569.911,0.0
55304.0,STARLINK-5318,PAYLOAD,2024-03-13 04:56:27,14.98332957,0.000294,69.9998,55.9889,268.0882,91.9941,1.698e-05,1.1e-06,0.0,0 STARLINK-5318,1 55304U 23010AM  24073.20587026  .00000110  00000-0  16980-4 0  9999,2 55304  69.9998  55.9889 0002940 268.0882  91.9941 14.98332957 64141,6950.184,96.107,574.092,570.005,0.0
55304.0,STARLINK-5318,PAYLOAD,2024-03-13 08:08:43,14.98333603,0.0002932,69.9999,55.6523,268.2048,91.8775,2.4214e-05,1.96e-06,0.0,0 STARLINK-5318,1 55304U 23010AM  24073.33938941  .00000196  00000-0  24214-4 0  9992,2 55304  69.9999  55.6523 0002932 268.2048  91.8775 14.98333603 64470,6950.182,96.107,574.085,570.009,0.0
55304.0,STARLINK-5318,PAYLOAD,2024-03-14 04:58:28,14.98328204,0.0002919,70.0001,53.464,268.2209,91.8616,5.4542e-06,-2.8e-07,0.0,0 STARLINK-5318,1 55304U 23010AM  24074.20727322 -.00000028  00000-0  54542-5 0  9991,2 55304  70.0001  53.4640 0002919 268.2209  91.8616 14.98328204 64292,6950.198,96.107,574.092,570.035,0.0
